{"type": "FeatureCollection", "features": [ {"type": "Feature", "properties": {"norad_id": 66913, "name": "2025-284A", "group": "last-30-days", "lat": -35.71669267068867, "lon": -42.61666510493184, "alt_km": 507.141456912761, "timestamp": "2025-12-12T05:47:27.527929+00:00", "meta": {"OBJECT_NAME": "2025-284A", "OBJECT_ID": "2025-284A", "EPOCH": "2025-12-11T22:31:04.526112", "MEAN_MOTION": 15.18943113, "ECCENTRICITY": 0.00120355, "INCLINATION": 80.4046, "RA_OF_ASC_NODE": 130.7808, "ARG_OF_PERICENTER": 207.1311, "MEAN_ANOMALY": 152.9289, "EPHEMERIS_TYPE": 0, "CLASSIFICATION_TYPE": "U", "NORAD_CAT_ID": 66913, "ELEMENT_SET_NO": 999, "REV_AT_EPOCH": 100, "BSTAR": 0.00068878214, "MEAN_MOTION_DOT": 0.00014447, "MEAN_MOTION_DDOT": 0}, "tle": {"line1": "1 66913U 25284A   25345.93824683  .00014447  00000+0  68878-3 0  9997", "line2": "2 66913  80.4046 130.7808 0012035 207.1311 152.9289 15.18943113  1005"}}, "geometry": {"type": "Point", "coordinates": [-42.61666510493184, -35.71669267068867]}}, {"type": "Feature", "properties": {"norad_id": 66914, "name": "2025-284B", "group": "last-30-days", "lat": -37.81846130617649, "lon": -42.057743642105784, "alt_km": 510.60345538493857, "timestamp": "2025-12-12T05:47:27.527941+00:00", "meta": {"OBJECT_NAME": "2025-284B", "OBJECT_ID": "2025-284B", "EPOCH": "2025-12-12T00:05:19.876992", "MEAN_MOTION": 15.18896903, "ECCENTRICITY": 0.00083237, "INCLINATION": 80.4055, "RA_OF_ASC_NODE": 130.6987, "ARG_OF_PERICENTER": 249.3612, "MEAN_ANOMALY": 110.6723, "EPHEMERIS_TYPE": 0, "CLASSIFICATION_TYPE": "U", "NORAD_CAT_ID": 66914, "ELEMENT_SET_NO": 999, "REV_AT_EPOCH": 101, "BSTAR": 0.0006703642, "MEAN_MOTION_DOT": 0.00014028, "MEAN_MOTION_DDOT": 0}, "tle": {"line1": "1 66914U 25284B   25346.00370228  .00014028  00000+0  67036-3 0  9998", "line2": "2 66914  80.4055 130.6987 0008323 249.3612 110.6723 15.18896903  1019"}}, "geometry": {"type": "Point", "coordinates": [-42.057743642105784, -37.81846130617649]}}, {"type": "Feature", "properties": {"norad_id": 66915, "name": "HULIANWANG DIGUI-105", "group": "last-30-days", "lat": -4.928898141946005, "lon": -56.546930368543215, "alt_km": 879.5646143493068, "timestamp": "2025-12-12T05:47:27.527952+00:00", "meta": {"OBJECT_NAME": "HULIANWANG DIGUI-105", "OBJECT_ID": "2025-285A", "EPOCH": "2025-12-11T23:47:02.279904", "MEAN_MOTION": 14.0457817, "ECCENTRICITY": 0.00080541, "INCLINATION": 50.005, "RA_OF_ASC_NODE": 120.3225, "ARG_OF_PERICENTER": 279.8198, "MEAN_ANOMALY": 80.1797, "EPHEMERIS_TYPE": 0, "CLASSIFICATION_TYPE": "U", "NORAD_CAT_ID": 66915, "ELEMENT_SET_NO": 999, "REV_AT_EPOCH": 80, "BSTAR": 0.00019780603, "MEAN_MOTION_DOT": 1.66e-06, "MEAN_MOTION_DDOT": 0}, "tle": {"line1": "1 66915U 25285A   25345.99099861  .00000166  00000+0  19781-3 0  9990", "line2": "2 66915  50.0050 120.3225 0008054 279.8198  80.1797 14.04578170   802"}}, "geometry": {"type": "Point", "coordinates": [-56.546930368543215, -4.928898141946005]}}, {"type": "Feature", "properties": {"norad_id": 66916, "name": "HULIANWANG DIGUI-106", "group": "last-30-days", "lat": -7.161191862750092, "lon": -54.647164879223276, "alt_km": 875.8547799008929, "timestamp": "2025-12-12T05:47:27.527962+00:00", "meta": {"OBJECT_NAME": "HULIANWANG DIGUI-106", "OBJECT_ID": "2025-285B", "EPOCH": "2025-12-11T23:46:27.165216", "MEAN_MOTION": 14.05514353, "ECCENTRICITY": 0.00069615, "INCLINATION": 50.0047, "RA_OF_ASC_NODE": 120.3226, "ARG_OF_PERICENTER": 274.8618, "MEAN_ANOMALY": 85.1492, "EPHEMERIS_TYPE": 0, "CLASSIFICATION_TYPE": "U", "NORAD_CAT_ID": 66916, "ELEMENT_SET_NO": 999, "REV_AT_EPOCH": 80, "BSTAR": 0.0001973035, "MEAN_MOTION_DOT": 1.7e-06, "MEAN_MOTION_DDOT": 0}, "tle": {"line1": "1 66916U 25285B   25345.99059219  .00000170  00000+0  19730-3 0  9993", "line2": "2 66916  50.0047 120.3226 0006961 274.8618  85.1492 14.05514353   808"}}, "geometry": {"type": "Point", "coordinates": [-54.647164879223276, -7.161191862750092]}}, {"type": "Feature", "properties": {"norad_id": 66917, "name": "HULIANWANG DIGUI-107", "group": "last-30-days", "lat": -8.276711666369238, "lon": -53.69289722897109, "alt_km": 876.3361959751164, "timestamp": "2025-12-12T05:47:27.527972+00:00", "meta": {"OBJECT_NAME": "HULIANWANG DIGUI-107", "OBJECT_ID": "2025-285C", "EPOCH": "2025-12-11T23:46:02.954208", "MEAN_MOTION": 14.05580276, "ECCENTRICITY": 0.00075523, "INCLINATION": 50.0013, "RA_OF_ASC_NODE": 120.3174, "ARG_OF_PERICENTER": 282.6777, "MEAN_ANOMALY": 77.3283, "EPHEMERIS_TYPE": 0, "CLASSIFICATION_TYPE": "U", "NORAD_CAT_ID": 66917, "ELEMENT_SET_NO": 999, "REV_AT_EPOCH": 80, "BSTAR": 1.143735e-05, "MEAN_MOTION_DOT": -1.33e-06, "MEAN_MOTION_DDOT": 0}, "tle": {"line1": "1 66917U 25285C   25345.99031197 -.00000133  00000+0  11437-4 0  9996", "line2": "2 66917  50.0013 120.3174 0007552 282.6777  77.3283 14.05580276   802"}}, "geometry": {"type": "Point", "coordinates": [-53.69289722897109, -8.276711666369238]}}, {"type": "Feature", "properties": {"norad_id": 66918, "name": "HULIANWANG DIGUI-108", "group": "last-30-days", "lat": -10.254551183398306, "lon": -51.97486407094459, "alt_km": 875.4753036083839, "timestamp": "2025-12-12T05:47:27.527985+00:00", "meta": {"OBJECT_NAME": "HULIANWANG DIGUI-108", "OBJECT_ID": "2025-285D", "EPOCH": "2025-12-11T23:45:20.797056", "MEAN_MOTION": 14.05704966, "ECCENTRICITY": 0.00064647, "INCLINATION": 50.0034, "RA_OF_ASC_NODE": 120.317, "ARG_OF_PERICENTER": 277.747, "MEAN_ANOMALY": 82.2701, "EPHEMERIS_TYPE": 0, "CLASSIFICATION_TYPE": "U", "NORAD_CAT_ID": 66918, "ELEMENT_SET_NO": 999, "REV_AT_EPOCH": 80, "BSTAR": 0.00020176622, "MEAN_MOTION_DOT": 1.79e-06, "MEAN_MOTION_DDOT": 0}, "tle": {"line1": "1 66918U 25285D   25345.98982404  .00000179  00000+0  20177-3 0  9991", "line2": "2 66918  50.0034 120.3170 0006464 277.7470  82.2701 14.05704966   802"}}, "geometry": {"type": "Point", "coordinates": [-51.97486407094459, -10.254551183398306]}}, {"type": "Feature", "properties": {"norad_id": 66919, "name": "HULIANWANG DIGUI-109", "group": "last-30-days", "lat": -10.490182740931106, "lon": -51.766227905074786, "alt_km": 876.4878648898002, "timestamp": "2025-12-12T05:47:27.527995+00:00", "meta": {"OBJECT_NAME": "HULIANWANG DIGUI-109", "OBJECT_ID": "2025-285E", "EPOCH": "2025-12-11T22:02:52.962720", "MEAN_MOTION": 14.05716298, "ECCENTRICITY": 0.00078676, "INCLINATION": 50.0059, "RA_OF_ASC_NODE": 120.6103, "ARG_OF_PERICENTER": 288.9901, "MEAN_ANOMALY": 71.0151, "EPHEMERIS_TYPE": 0, "CLASSIFICATION_TYPE": "U", "NORAD_CAT_ID": 66919, "ELEMENT_SET_NO": 999, "REV_AT_EPOCH": 79, "BSTAR": 2.97987e-07, "MEAN_MOTION_DOT": -1.52e-06, "MEAN_MOTION_DDOT": 0}, "tle": {"line1": "1 66919U 25285E   25345.91866855 -.00000152  00000+0  29799-6 0  9990", "line2": "2 66919  50.0059 120.6103 0007867 288.9901  71.0151 14.05716298   794"}}, "geometry": {"type": "Point", "coordinates": [-51.766227905074786, -10.490182740931106]}}, {"type": "Feature", "properties": {"norad_id": 66920, "name": "HULIANWANG DIGUI-110", "group": "last-30-days", "lat": -12.611811671814122, "lon": -49.88520531220969, "alt_km": 875.6484543513561, "timestamp": "2025-12-12T05:47:27.528005+00:00", "meta": {"OBJECT_NAME": "HULIANWANG DIGUI-110", "OBJECT_ID": "2025-285F", "EPOCH": "2025-12-11T22:02:08.407104", "MEAN_MOTION": 14.05850792, "ECCENTRICITY": 0.00058216, "INCLINATION": 50.0091, "RA_OF_ASC_NODE": 120.6112, "ARG_OF_PERICENTER": 285.8161, "MEAN_ANOMALY": 74.2102, "EPHEMERIS_TYPE": 0, "CLASSIFICATION_TYPE": "U", "NORAD_CAT_ID": 66920, "ELEMENT_SET_NO": 999, "REV_AT_EPOCH": 79, "BSTAR": 0.00019551379, "MEAN_MOTION_DOT": 1.69e-06, "MEAN_MOTION_DDOT": 0}, "tle": {"line1": "1 66920U 25285F   25345.91815286  .00000169  00000+0  19551-3 0  9993", "line2": "2 66920  50.0091 120.6112 0005821 285.8161  74.2102 14.05850792   793"}}, "geometry": {"type": "Point", "coordinates": [-49.88520531220969, -12.611811671814122]}}, {"type": "Feature", "properties": {"norad_id": 66921, "name": "HULIANWANG DIGUI-111", "group": "last-30-days", "lat": -13.143453330624082, "lon": -49.40662928215024, "alt_km": 876.1049919267452, "timestamp": "2025-12-12T05:47:27.528014+00:00", "meta": {"OBJECT_NAME": "HULIANWANG DIGUI-111", "OBJECT_ID": "2025-285G", "EPOCH": "2025-12-11T23:44:18.125088", "MEAN_MOTION": 14.05884525, "ECCENTRICITY": 0.00069743, "INCLINATION": 50.0107, "RA_OF_ASC_NODE": 120.322, "ARG_OF_PERICENTER": 292.5707, "MEAN_ANOMALY": 67.446, "EPHEMERIS_TYPE": 0, "CLASSIFICATION_TYPE": "U", "NORAD_CAT_ID": 66921, "ELEMENT_SET_NO": 999, "REV_AT_EPOCH": 80, "BSTAR": 0.00020872477, "MEAN_MOTION_DOT": 1.91e-06, "MEAN_MOTION_DDOT": 0}, "tle": {"line1": "1 66921U 25285G   25345.98909867  .00000191  00000+0  20872-3 0  9993", "line2": "2 66921  50.0107 120.3220 0006974 292.5707  67.4460 14.05884525   804"}}, "geometry": {"type": "Point", "coordinates": [-49.40662928215024, -13.143453330624082]}}, {"type": "Feature", "properties": {"norad_id": 66922, "name": "HULIANWANG DIGUI-112", "group": "last-30-days", "lat": -14.954086692952156, "lon": -47.76205280155784, "alt_km": 876.2270740187059, "timestamp": "2025-12-12T05:47:27.528027+00:00", "meta": {"OBJECT_NAME": "HULIANWANG DIGUI-112", "OBJECT_ID": "2025-285H", "EPOCH": "2025-12-11T23:43:38.730144", "MEAN_MOTION": 14.05999854, "ECCENTRICITY": 0.00069438, "INCLINATION": 50.0082, "RA_OF_ASC_NODE": 120.3156, "ARG_OF_PERICENTER": 298.858, "MEAN_ANOMALY": 61.1628, "EPHEMERIS_TYPE": 0, "CLASSIFICATION_TYPE": "U", "NORAD_CAT_ID": 66922, "ELEMENT_SET_NO": 999, "REV_AT_EPOCH": 80, "BSTAR": 1.973181e-06, "MEAN_MOTION_DOT": -1.49e-06, "MEAN_MOTION_DDOT": 0}, "tle": {"line1": "1 66922U 25285H   25345.98864271 -.00000149  00000+0  19732-5 0  9992", "line2": "2 66922  50.0082 120.3156 0006943 298.8580  61.1628 14.05999854   808"}}, "geometry": {"type": "Point", "coordinates": [-47.76205280155784, -14.954086692952156]}}]}